OBJECT_NAME,OBJECT_ID,EPOCH,MEAN_MOTION,ECCENTRICITY,INCLINATION,RA_OF_ASC_NODE,ARG_OF_PERICENTER,MEAN_ANOMALY,EPHEMERIS_TYPE,CLASSIFICATION_TYPE,NORAD_CAT_ID,ELEMENT_SET_NO,REV_AT_EPOCH,BSTAR,MEAN_MOTION_DOT,MEAN_MOTION_DDOT
NIMIQ 2,2002-062A,2026-07-09T02:34:56.009280,1.00270222,.00053611,9.4938,56.6611,50.4394,109.4998,0,U,27632,999,4440,0,-.63E-6,0
USA 167,2003-008A,2026-07-08T14:50:02.870592,1.00271079,.00031359,11.0014,43.2107,309.3873,34.7727,0,U,27691,999,698,0,.9E-7,0
USA 169 (MILSTAR-2 4),2003-012A,2026-07-08T21:15:58.949280,1.00269507,.00996582,12.3807,29.6584,10.0800,358.1984,0,U,27711,999,3317,0,-.193E-5,0
ASIASAT 4,2003-014A,2026-07-08T14:39:51.575040,1.00271361,.00028847,4.7574,75.4779,31.9930,186.5983,0,U,27718,999,4551,0,-.211E-5,0
HELLAS-SAT 2,2003-020A,2026-07-08T23:28:38.720352,1.00271514,.00033687,7.4056,67.6206,73.8949,127.5421,0,U,27811,999,4306,0,-.76E-6,0
THURAYA-2,2003-026A,2026-07-09T05:18:24.209856,1.00271293,.00027388,8.8729,31.8761,20.8457,358.0421,0,U,27825,999,8457,0,.131E-5,0
OPTUS C1,2003-028B,2026-07-09T07:52:41.975040,1.00269917,.00052834,6.9418,69.1384,36.9148,95.1266,0,U,27831,999,5328,0,-.145E-5,0
USA 170,2003-040A,2026-07-09T05:12:54.736416,1.00273629,.00018768,10.5444,47.7332,80.3302,261.5262,0,U,27875,999,3321,0,.131E-5,0
GALAXY 13 (HORIZONS-1),2003-044A,2026-07-09T07:04:05.675232,1.00271548,.0002249,1.4750,83.5819,15.8132,143.8749,0,U,27954,999,4679,0,.145E-5,0
YAMAL 202,2003-053A,2026-07-08T21:19:13.637856,1.00272238,.00034405,6.3957,70.6755,32.8669,306.6473,0,U,28089,999,8291,0,-.71E-6,0
UFO 11 (USA 174),2003-057A,2026-07-09T00:16:51.764736,1.00270330,.00025865,8.9491,33.7192,86.5459,246.5117,0,U,28117,999,8266,0,-.98E-6,0
USA 176 (DSP 22),2004-004A,2026-07-09T07:43:38.755776,1.00268066,.00009666,12.0908,25.9002,284.5580,43.3837,0,U,28158,999,3315,0,-.292E-5,0
ABS-4 (MOBISAT-1),2004-007A,2026-07-09T05:23:16.242720,1.00271892,.00046035,6.0955,71.7391,36.6123,320.5598,0,U,28184,999,5255,0,.48E-6,0
INTELSAT 10-02,2004-022A,2026-07-09T07:11:38.724864,1.00266932,.00003209,0.0491,261.8304,4.0600,128.2578,0,U,28358,999,8077,0,.2E-7,0
ANIK F2,2004-027A,2026-07-09T08:19:21.595008,1.00271077,.00036416,3.3416,79.1478,28.7225,193.1317,0,U,28378,999,4148,0,-.39E-6,0
AMC-15,2004-041A,2026-07-09T08:09:18.326880,1.00271357,.00022814,0.0299,309.1063,173.5677,181.8774,0,U,28446,999,7952,0,-.75E-6,0
NSS-10,2005-003A,2026-07-09T07:35:38.812416,1.00270213,.00027545,6.5018,70.1822,44.1272,249.4016,0,U,28526,999,5337,0,-.244E-5,0
INMARSAT 4-F1,2005-009A,2026-07-09T07:28:07.317984,1.00271428,.00026078,5.1967,42.7750,71.6117,103.0006,0,U,28628,999,7789,0,.42E-6,0
DIRECTV 8,2005-019A,2026-07-09T01:06:39.308256,1.00271925,.00031036,0.0150,59.8067,62.1509,62.6496,0,U,28659,999,7729,0,.15E-6,0
GALAXY 28 (G-28),2005-022A,2026-07-09T07:27:38.629728,1.00270317,.0002102,3.3523,78.6630,35.8371,257.5606,0,U,28702,999,5219,0,-.19E-5,0
THAICOM 4,2005-028A,2026-07-09T07:22:35.299200,1.00271205,.00015099,0.2993,85.5965,7.8806,63.9153,0,U,28786,999,5247,0,-.349E-5,0
ANIK F1R,2005-036A,2026-07-09T08:10:31.296864,1.00271406,.00038332,4.3661,76.3044,23.6161,202.6901,0,U,28868,999,4667,0,-.65E-6,0
SYRACUSE 3A,2005-041B,2026-07-09T06:29:14.828064,1.00271487,.00027291,4.6969,75.5694,25.4590,330.1123,0,U,28885,999,7596,0,.138E-5,0
INMARSAT 4-F2,2005-044A,2026-07-09T07:29:27.140352,1.00271464,.0002965,5.1228,43.6476,56.5320,82.9247,0,U,28899,999,7574,0,-.251E-5,0
METEOSAT-9 (MSG-2),2005-049B,2026-07-09T04:21:51.473664,1.00269477,.00020671,9.4083,53.9456,359.3652,344.9618,0,U,28912,999,721,0,.13E-5,0
EUTELSAT 174A,2005-052A,2026-07-09T07:52:18.956352,1.00269909,.00058534,4.2716,76.2531,34.2604,108.7964,0,U,28924,999,5255,0,.18E-6,0
ECHOSTAR 10,2006-003A,2026-07-09T08:21:17.650944,1.00271665,.00010702,0.0433,295.6885,161.8681,204.8785,0,U,28935,999,7468,0,-.42E-6,0
SPAINSAT,2006-007A,2026-07-08T06:55:56.580384,1.00271285,.00047936,0.6147,86.1867,19.9088,253.9596,0,U,28945,999,7442,0,-.202E-5,0
JCSAT-5A,2006-010A,2026-07-09T07:26:12.451776,1.00272960,.00017121,1.1636,83.9835,17.0288,69.8276,0,U,29045,999,7399,0,-.315E-5,0
ASTRA 1KR,2006-012A,2026-07-09T06:55:38.598816,1.00273446,.00033028,0.5277,83.1958,22.4428,304.5099,0,U,29055,999,4591,0,.132E-5,0
GALAXY 16 (G-16),2006-023A,2026-07-09T08:05:18.655008,1.00271688,.00024962,0.0322,122.5133,351.9452,195.1440,0,U,29236,999,7319,0,-.113E-5,0
EUTELSAT 33F,2006-032A,2026-07-09T06:57:54.282240,1.00268840,.00034905,1.7157,82.0002,22.9445,319.8446,0,U,29270,999,4752,0,.168E-5,0
