NIMIQ 2                 
1 27632U 02062A   26190.10759270 -.00000063  00000+0  00000+0 0  9997
2 27632   9.4938  56.6611 0005361  50.4394 109.4998  1.00270222 44408
USA 167                 
1 27691U 03008A   26189.61808878  .00000009  00000+0  00000+0 0  9995
2 27691  11.0014  43.2107 0003135 309.3873  34.7727  1.00271079  6986
USA 169 (MILSTAR-2 4)   
1 27711U 03012A   26189.88609895 -.00000193  00000+0  00000+0 0  9995
2 27711  12.3807  29.6584 0099658  10.0800 358.1984  1.00269507 33173
ASIASAT 4               
1 27718U 03014A   26189.61101360 -.00000211  00000+0  00000+0 0  9990
2 27718   4.7574  75.4779 0002884  31.9930 186.5983  1.00271361 45516
HELLAS-SAT 2            
1 27811U 03020A   26189.97822593 -.00000076  00000+0  00000+0 0  9997
2 27811   7.4056  67.6206 0003368  73.8949 127.5421  1.00271514 43066
THURAYA-2               
1 27825U 03026A   26190.22111354  .00000131  00000+0  00000+0 0  9995
2 27825   8.8729  31.8761 0002738  20.8457 358.0421  1.00271293 84574
OPTUS C1                
1 27831U 03028B   26190.32826360 -.00000145  00000+0  00000+0 0  9991
2 27831   6.9418  69.1384 0005283  36.9148  95.1266  1.00269917 53283
USA 170                 
1 27875U 03040A   26190.21730019  .00000131  00000+0  00000+0 0  9990
2 27875  10.5444  47.7332 0001876  80.3302 261.5262  1.00273629 33216
GALAXY 13 (HORIZONS-1)  
1 27954U 03044A   26190.29451013  .00000145  00000+0  00000+0 0  9999
2 27954   1.4750  83.5819 0002249  15.8132 143.8749  1.00271548 46797
YAMAL 202               
1 28089U 03053A   26189.88835229 -.00000071  00000+0  00000+0 0  9996
2 28089   6.3957  70.6755 0003440  32.8669 306.6473  1.00272238 82918
UFO 11 (USA 174)        
1 28117U 03057A   26190.01171024 -.00000098  00000+0  00000+0 0  9994
2 28117   8.9491  33.7192 0002586  86.5459 246.5117  1.00270330 82669
USA 176 (DSP 22)        
1 28158U 04004A   26190.32197634 -.00000292  00000+0  00000+0 0  9997
2 28158  12.0908  25.9002 0000966 284.5580  43.3837  1.00268066 33156
ABS-4 (MOBISAT-1)       
1 28184U 04007A   26190.22449355  .00000048  00000+0  00000+0 0  9996
2 28184   6.0955  71.7391 0004603  36.6123 320.5598  1.00271892 52551
INTELSAT 10-02          
1 28358U 04022A   26190.29975376  .00000002  00000+0  00000+0 0  9990
2 28358   0.0491 261.8304 0000320   4.0600 128.2578  1.00266932 80775
ANIK F2                 
1 28378U 04027A   26190.34677772 -.00000039  00000+0  00000+0 0  9993
2 28378   3.3416  79.1478 0003641  28.7225 193.1317  1.00271077 41480
AMC-15                  
1 28446U 04041A   26190.33979545 -.00000075  00000+0  00000+0 0  9997
2 28446   0.0299 309.1063 0002281 173.5677 181.8774  1.00271357 79522
NSS-10                  
1 28526U 05003A   26190.31642144 -.00000244  00000+0  00000+0 0  9993
2 28526   6.5018  70.1822 0002754  44.1272 249.4016  1.00270213 53373
INMARSAT 4-F1           
1 28628U 05009A   26190.31119581  .00000042  00000+0  00000+0 0  9991
2 28628   5.1967  42.7750 0002607  71.6117 103.0006  1.00271428 77895
DIRECTV 8               
1 28659U 05019A   26190.04628829  .00000015  00000+0  00000+0 0  9996
2 28659   0.0150  59.8067 0003103  62.1509  62.6496  1.00271925 77298
GALAXY 28 (G-28)        
1 28702U 05022A   26190.31086377 -.00000190  00000+0  00000+0 0  9990
2 28702   3.3523  78.6630 0002102  35.8371 257.5606  1.00270317 52198
THAICOM 4               
1 28786U 05028A   26190.30735300 -.00000349  00000+0  00000+0 0  9990
2 28786   0.2993  85.5965 0001509   7.8806  63.9153  1.00271205 52471
ANIK F1R                
1 28868U 05036A   26190.34064001 -.00000065  00000+0  00000+0 0  9992
2 28868   4.3661  76.3044 0003833  23.6161 202.6901  1.00271406 46678
SYRACUSE 3A             
1 28885U 05041B   26190.27031051  .00000138  00000+0  00000+0 0  9998
2 28885   4.6969  75.5694 0002729  25.4590 330.1123  1.00271487 75968
INMARSAT 4-F2           
1 28899U 05044A   26190.31211968 -.00000251  00000+0  00000+0 0  9995
2 28899   5.1228  43.6476 0002965  56.5320  82.9247  1.00271464 75749
METEOSAT-9 (MSG-2)      
1 28912U 05049B   26190.18184576  .00000130  00000+0  00000+0 0  9990
2 28912   9.4083  53.9456 0002067 359.3652 344.9618  1.00269477  7219
EUTELSAT 174A           
1 28924U 05052A   26190.32799718  .00000018  00000+0  00000+0 0  9998
2 28924   4.2716  76.2531 0005853  34.2604 108.7964  1.00269909 52559
ECHOSTAR 10             
1 28935U 06003A   26190.34812096 -.00000042  00000+0  00000+0 0  9992
2 28935   0.0433 295.6885 0001070 161.8681 204.8785  1.00271665 74688
SPAINSAT                
1 28945U 06007A   26189.28884931 -.00000202  00000+0  00000+0 0  9993
2 28945   0.6147  86.1867 0004793  19.9088 253.9596  1.00271285 74424
JCSAT-5A                
1 29045U 06010A   26190.30986634 -.00000315  00000+0  00000+0 0  9992
2 29045   1.1636  83.9835 0001712  17.0288  69.8276  1.00272960 73995
ASTRA 1KR               
1 29055U 06012A   26190.28864119  .00000132  00000+0  00000+0 0  9991
2 29055   0.5277  83.1958 0003302  22.4428 304.5099  1.00273446 45914
GALAXY 16 (G-16)        
1 29236U 06023A   26190.33702147 -.00000113  00000+0  00000+0 0  9992
2 29236   0.0322 122.5133 0002496 351.9452 195.1440  1.00271688 73195
EUTELSAT 33F            
1 29270U 06032A   26190.29021160  .00000168  00000+0  00000+0 0  9993
2 29270   1.7157  82.0002 0003490  22.9445 319.8446  1.00268840 47529
